*******************************************************************************
Ephemeris / WWW_USER Mon Mar 24 07:44:33 2025 Pasadena, USA      / Horizons    
*******************************************************************************
Target body name: (2018 TC)                       {source: JPL#10}
Center body name: Earth (399)                     {source: DE441}
Center-site name: Mauna Kea
*******************************************************************************
Start time      : A.D. 2018-Nov-22 03:51:00.0000 UT      
Stop  time      : A.D. 2018-Nov-22 16:25:00.0000 UT      
Step-size       : 1 minutes
*******************************************************************************
Target pole/equ : undefined
Target radii    : undefined                                                    
Center geodetic : 204.5278, 19.8260847, 4.21024   {E-lon(deg),Lat(deg),Alt(km)}
Center cylindric: 204.5278, 6006.35451, 2151.0229 {E-lon(deg),Dxy(km),Dz(km)}
Center pole/equ : ITRF93                          {East-longitude positive}
Center radii    : 6378.137, 6378.137, 6356.752 km {Equator_a, b, pole_c}       
Target primary  : Sun
Vis. interferer : MOON (R_eq= 1737.400) km        {source: DE441}
Rel. light bend : Sun                             {source: DE441}
Rel. lght bnd GM: 1.3271E+11 km^3/s^2                                          
Small-body perts: Yes                             {source: SB441-N16}
Atmos refraction: NO (AIRLESS)
RA format       : HMS
Time format     : CAL 
Calendar mode   : Mixed Julian/Gregorian
RTS-only print  : NO       
EOP file        : eop.250321.p250617                                           
EOP coverage    : DATA-BASED 1962-JAN-20 TO 2025-MAR-21. PREDICTS-> 2025-JUN-16
Units conversion: 1 au= 149597870.700 km, c= 299792.458 km/s, 1 day= 86400.0 s 
Table cut-offs 1: Elevation (-90.0deg=NO ),Airmass (>38.000=NO), Daylight (YES)
Table cut-offs 2: Solar elongation (  0.0,180.0=NO ),Local Hour Angle( 0.0=NO )
Table cut-offs 3: RA/DEC angular rate (     0.0=NO )                           
*******************************************************************************
Initial IAU76/J2000 heliocentric ecliptic osculating elements (au, days, deg.):
  EPOCH=  2458399.5 ! 2018-Oct-08.00 (TDB)         Residual RMS= .20211        
   EC= .2253304451868516   QR= .9525668516843322   TP= 2458354.2554697809      
   OM= 188.9146441926015   W=  135.2493409557404   IN= 3.631837316097226       
  Equivalent ICRF heliocentric cartesian coordinates (au, au/d):
   X= 9.874490534016482E-01  Y= 2.414303737329446E-01  Z= 9.746991415829437E-02
  VX=-1.955204385424240E-03 VY= 1.722364762632024E-02 VZ= 6.197883797821973E-03
Asteroid physical parameters (km, seconds, rotational period in hours):        
   GM= n.a.                RAD= n.a.               ROTPER= n.a.                
   H= 26.6                 G= .150                 B-V= n.a.                   
                           ALBEDO= n.a.            STYP= n.a.                  
*******************************************************************************
 Date__(UT)__HR:MN     R.A._________(ICRF)_________DEC
******************************************************
$$SOE
 2018-Nov-22 16:09 Nm  02 23 20.076027 -01 29 38.02172
 2018-Nov-22 16:10 Nm  02 23 20.096042 -01 29 37.54528
 2018-Nov-22 16:11 Nm  02 23 20.116104 -01 29 37.06885
 2018-Nov-22 16:12 Cm  02 23 20.136213 -01 29 36.59241
 2018-Nov-22 16:13 C   02 23 20.156369 -01 29 36.11598
 2018-Nov-22 16:14 C   02 23 20.176572 -01 29 35.63956
 2018-Nov-22 16:15 C   02 23 20.196821 -01 29 35.16314
 2018-Nov-22 16:16 C   02 23 20.217117 -01 29 34.68672
 2018-Nov-22 16:17 C   02 23 20.237460 -01 29 34.21030
 2018-Nov-22 16:18 C   02 23 20.257849 -01 29 33.73389
 2018-Nov-22 16:19 C   02 23 20.278284 -01 29 33.25748
 2018-Nov-22 16:20 C   02 23 20.298765 -01 29 32.78107
 2018-Nov-22 16:21 C   02 23 20.319293 -01 29 32.30467
 2018-Nov-22 16:22 C   02 23 20.339867 -01 29 31.82827
 2018-Nov-22 16:23 C   02 23 20.360487 -01 29 31.35188
 2018-Nov-22 16:24 C   02 23 20.381152 -01 29 30.87549
 2018-Nov-22 16:25 C   02 23 20.401864 -01 29 30.39910
